STARLINK-2034           
1 47352U 21005D   26068.23723498  .00001736  00000+0  70753-4 0  9991
2 47352  53.1612  54.8446 0001538 121.4256 238.6896 15.30193367283104
TRANSPORTER-10 OBJECT AD
1 59125U 24043AD  26068.86032889  .00011954  00000+0  36311-3 0  9997
2 59125  97.5470 207.3753 0008984 221.4908 138.5653 15.34189901112026
